ORBCOMM FM24 [-]        
1 25478U 98053D   24064.11405058  .00001985  00000+0  73504-3 0  9995
2 25478  45.0103 332.9964 0002017  11.3304 348.7588 14.35327874330125
ORBCOMM FM25 [-]        
1 25479U 98053E   24064.07948158  .00001997  00000+0  73941-3 0  9992
2 25479  45.0094 331.3993 0004195  39.4831 320.6321 14.35311578330134
ORBCOMM FM26 [-]        
1 25480U 98053F   24064.40917362  .00001332  00000+0  51474-3 0  9994
2 25480  45.0086 323.6911 0005901  67.4136 292.7335 14.34798923330222
ORBCOMM FM27 [+]        
1 25481U 98053G   24063.85787316  .00002392  00000+0  87611-3 0  9996
2 25481  45.0077 332.7091 0000827 329.6418  30.4381 14.35288602330071
ORBCOMM FM28 [-]        
1 25482U 98053H   24064.28297342  .00001324  00000+0  50252-3 0  9995
2 25482  45.0053 269.3989 0004225 104.3100 255.8217 14.35740650330931
ORBCOMM FM30 [-]        
1 25980U 99065A   24063.61177768  .00001295  00000+0  50019-3 0  9995
2 25980  45.0313 152.9129 0007011 185.9279 174.1486 14.34937343266805
ORBCOMM FM31 [-]        
1 25981U 99065B   24064.48268833  .00001221  00000+0  47446-3 0  9995
2 25981  45.0224 142.5495 0004808 216.1222 143.9301 14.34952623267454
ORBCOMM FM32 [+]        
1 25982U 99065C   24064.34636183  .00001319  00000+0  51875-3 0  9997
2 25982  45.0152 156.5085 0007167 210.4960 149.5470 14.33919032267233
